OBJECT_NAME,OBJECT_ID,EPOCH,MEAN_MOTION,ECCENTRICITY,INCLINATION,RA_OF_ASC_NODE,ARG_OF_PERICENTER,MEAN_ANOMALY,EPHEMERIS_TYPE,CLASSIFICATION_TYPE,NORAD_CAT_ID,ELEMENT_SET_NO,REV_AT_EPOCH,BSTAR,MEAN_MOTION_DOT,MEAN_MOTION_DDOT
TIANMU-1 21,2023-208C,2026-07-15T20:37:29.140320,15.35559360,.000676,97.4533,316.7886,201.7091,158.3866,0,U,58662,999,14196,.15659E-3,.5332E-4,0
TIANMU-1 22,2023-208D,2026-07-15T21:23:22.321248,15.31432831,.0002801,97.4527,313.2601,215.1035,145.0021,0,U,58663,999,14172,.13429E-3,.3997E-4,0
TIANMU-1 15,2024-004A,2026-07-15T20:50:05.870400,15.26917857,.0006096,97.4667,23.0587,225.6878,134.3862,0,U,58700,999,14015,.11158E-3,.2875E-4,0
TIANMU-1 16,2024-004B,2026-07-15T20:34:51.830976,15.27020817,.0004479,97.4615,22.2644,242.4788,117.5996,0,U,58701,999,14015,.10768E-3,.2781E-4,0
TIANMU-1 17,2024-004C,2026-07-15T20:13:57.584640,15.27018908,.0003938,97.4642,22.7453,248.7152,111.3667,0,U,58702,999,14014,.11486E-3,.2971E-4,0
TIANMU-1 18,2024-004D,2026-07-15T19:39:34.687008,15.26933925,.0003813,97.4659,22.9841,221.8367,138.2581,0,U,58703,999,14014,.11051E-3,.2848E-4,0
INSAT-3DS,2024-033A,2026-07-15T18:53:33.012960,1.00270864,.0001084,0.0895,264.6080,224.4752,170.0000,0,U,58990,999,4735,0,-.166E-5,0
METEOR-M2 4,2024-039A,2026-07-15T21:11:26.754720,14.22432183,.0008257,98.7026,155.8228,87.0604,273.1519,0,U,59051,999,12334,.12294E-4,-.16E-6,0
GOES 19,2024-119A,2026-07-15T18:08:30.998112,1.00271327,.0000414,0.0117,90.7045,119.9215,279.9033,0,U,60133,999,725,0,-.259E-5,0
MTG-S1,2025-143A,2026-07-15T18:30:00.821376,1.00273699,.0003432,0.5841,345.2679,261.0894,324.3568,0,U,64723,999,370,0,-.17E-6,0
METOP-SGA1,2025-172A,2026-07-14T18:20:46.629312,14.19819127,.00070989,98.6631,254.9090,333.3306,26.7504,0,U,65159,999,4770,.2916334E-4,.19E-6,0
FENGYUN 3H,2025-219A,2026-07-15T18:59:21.930720,14.19924860,.0001132,98.6770,137.0050,62.3877,297.7414,0,U,65815,999,4144,.24952E-4,.1E-6,0
