TIANMU-1 21             
1 58662U 23208C   26196.85936505  .00005332  00000+0  15659-3 0  9998
2 58662  97.4533 316.7886 0006760 201.7091 158.3866 15.35559360141968
TIANMU-1 22             
1 58663U 23208D   26196.89123057  .00003997  00000+0  13429-3 0  9991
2 58663  97.4527 313.2601 0002801 215.1035 145.0021 15.31432831141727
TIANMU-1 15             
1 58700U 24004A   26196.86812350  .00002875  00000+0  11158-3 0  9997
2 58700  97.4667  23.0587 0006096 225.6878 134.3862 15.26917857140154
TIANMU-1 16             
1 58701U 24004B   26196.85754434  .00002781  00000+0  10768-3 0  9997
2 58701  97.4615  22.2644 0004479 242.4788 117.5996 15.27020817140156
TIANMU-1 17             
1 58702U 24004C   26196.84302760  .00002971  00000+0  11486-3 0  9997
2 58702  97.4642  22.7453 0003938 248.7152 111.3667 15.27018908140147
TIANMU-1 18             
1 58703U 24004D   26196.81915147  .00002848  00000+0  11051-3 0  9995
2 58703  97.4659  22.9841 0003813 221.8367 138.2581 15.26933925140148
INSAT-3DS               
1 58990U 24033A   26196.78718765 -.00000166  00000+0  00000+0 0  9998
2 58990   0.0895 264.6080 0001084 224.4752 170.0000  1.00270864 47355
METEOR-M2 4             
1 59051U 24039A   26196.88294855 -.00000016  00000+0  12294-4 0  9990
2 59051  98.7026 155.8228 0008257  87.0604 273.1519 14.22432183123343
GOES 19                 
1 60133U 24119A   26196.75591433 -.00000259  00000+0  00000+0 0  9996
2 60133   0.0117  90.7045 0000414 119.9215 279.9033  1.00271327  7256
MTG-S1                  
1 64723U 25143A   26196.77084284 -.00000017  00000+0  00000+0 0  9998
2 64723   0.5841 345.2679 0003432 261.0894 324.3568  1.00273699  3708
METOP-SGA1              
1 65159U 25172A   26195.76442858  .00000019  00000+0  29163-4 0  9994
2 65159  98.6631 254.9090 0007098 333.3306  26.7504 14.19819127 47700
FENGYUN 3H              
1 65815U 25219A   26196.79122605  .00000010  00000+0  24952-4 0  9996
2 65815  98.6770 137.0050 0001132  62.3877 297.7414 14.19924860 41441
